OBJECT_NAME,OBJECT_ID,EPOCH,MEAN_MOTION,ECCENTRICITY,INCLINATION,RA_OF_ASC_NODE,ARG_OF_PERICENTER,MEAN_ANOMALY,EPHEMERIS_TYPE,CLASSIFICATION_TYPE,NORAD_CAT_ID,ELEMENT_SET_NO,REV_AT_EPOCH,BSTAR,MEAN_MOTION_DOT,MEAN_MOTION_DDOT
GLOBALSTAR M069,2007-020C,2026-06-20T02:52:48.324864,12.23471362,.00022737,52.0019,243.8261,154.4269,213.0953,0,U,31573,999,87916,.59390841E-4,-.86E-6,0
GLOBALSTAR M072,2007-020D,2026-06-20T06:18:09.023616,11.91658300,.00014443,51.9932,92.0574,340.1824,183.7882,0,U,31574,999,87534,-.18974189E-3,-.98E-6,0
GLOBALSTAR M066,2007-048C,2026-06-19T20:12:39.926592,12.30387322,.00055365,51.9606,50.2909,49.6386,29.5568,0,U,32265,999,86055,-.41006383E-3,-.143E-5,0
GLOBALSTAR M079,2010-054A,2026-06-19T23:46:59.955744,12.62266104,.0000779,52.0037,100.1341,30.9958,48.7777,0,U,37188,999,72290,.71095778E-4,-.91E-6,0
GLOBALSTAR M074,2010-054B,2026-06-20T04:34:20.516736,12.62268375,.00006164,52.0014,98.7910,56.2996,90.9323,0,U,37189,999,72353,.59540285E-4,-.93E-6,0
GLOBALSTAR M076,2010-054C,2026-06-20T05:15:40.435200,12.62261874,.00008069,52.0024,98.9070,49.2410,108.4862,0,U,37190,999,72325,.79453213E-4,-.9E-6,0
GLOBALSTAR M077,2010-054D,2026-06-20T07:12:24.013152,11.67547827,.00026829,51.9916,171.3940,178.1364,285.8666,0,U,37191,999,72150,-.9932915E-4,-.83E-6,0
GLOBALSTAR M075,2010-054E,2026-06-20T07:24:05.166432,12.62267321,.00002423,51.9926,140.6886,24.6357,118.4869,0,U,37192,999,72233,-.13933841E-4,-.106E-5,0
GLOBALSTAR M073,2010-054F,2026-06-20T03:43:13.173312,12.62266390,.00009576,52.0071,55.2584,54.8130,109.4595,0,U,37193,999,72430,-.79796363E-4,-.118E-5,0
GLOBALSTAR M083,2011-033A,2026-06-20T05:58:17.297184,12.62263282,.0000954,51.9874,3.1972,71.2932,100.8602,0,U,37739,999,69333,.92562867E-4,-.87E-6,0
GLOBALSTAR M088,2011-033B,2026-06-20T06:29:03.322176,12.62268842,.00006422,52.0214,269.5692,132.0435,255.6304,0,U,37740,999,68888,.10468862E-3,-.85E-6,0
GLOBALSTAR M091,2011-033C,2026-06-20T04:55:37.788672,12.62264047,.00002306,51.9986,232.7278,161.8311,231.8185,0,U,37741,999,68966,.25846564E-4,-.99E-6,0
GLOBALSTAR M085,2011-033D,2026-06-20T04:50:34.882368,12.62264127,.00001753,52.0095,184.0317,320.4031,117.3879,0,U,37742,999,69017,-.74839165E-4,-.117E-5,0
GLOBALSTAR M081,2011-033E,2026-06-20T05:28:51.138624,12.62265138,.00001106,51.9928,186.3840,60.5782,17.7034,0,U,37743,999,69032,-.16404992E-4,-.107E-5,0
GLOBALSTAR M089,2011-033F,2026-06-20T06:44:47.406336,12.62267260,.00003818,51.9910,140.3804,80.3883,58.5428,0,U,37744,999,69117,.27605493E-4,-.99E-6,0
GLOBALSTAR M084,2011-080A,2026-06-19T23:33:55.804896,12.62267589,.00011015,52.0027,8.7741,90.0231,68.5285,0,U,38040,999,66911,.33465316E-4,-.98E-6,0
GLOBALSTAR M080,2011-080B,2026-06-20T00:48:56.249568,12.62269508,.00004045,52.0078,10.3347,72.1904,93.2346,0,U,38041,999,66924,.74923636E-4,-.9E-6,0
GLOBALSTAR M082,2011-080C,2026-06-20T05:00:46.474272,12.62263688,.00005124,52.0100,325.3040,101.3544,69.1461,0,U,38042,999,66997,.72166635E-4,-.91E-6,0
GLOBALSTAR M092,2011-080D,2026-06-20T04:24:02.723040,12.62267042,.00007516,52.0094,55.7781,67.9038,105.6882,0,U,38043,999,66842,.70589803E-4,-.91E-6,0
GLOBALSTAR M090,2011-080E,2026-06-20T03:45:25.979616,12.62269044,.00007751,52.0139,319.4194,95.6256,76.0811,0,U,38044,999,67008,.31270515E-4,-.98E-6,0
GLOBALSTAR M086,2011-080F,2026-06-20T04:16:18.610752,12.62286838,.00016941,51.9916,319.2795,72.6310,97.7535,0,U,38045,999,67003,.11385693E-3,-.83E-6,0
GLOBALSTAR M097,2013-005A,2026-06-20T04:07:34.237920,12.62247329,.00002277,52.0035,234.2520,126.9054,233.1834,0,U,39072,999,61728,.32518193E-4,-.98E-6,0
GLOBALSTAR M093,2013-005B,2026-06-20T07:16:59.304288,12.62266017,.00001746,52.0088,227.1985,76.1111,283.9775,0,U,39073,999,61725,-.4715225E-5,-.105E-5,0
GLOBALSTAR M094,2013-005C,2026-06-20T05:22:48.065952,12.62268522,.00004878,51.9934,141.5515,11.0413,349.0464,0,U,39074,999,61885,-.39277816E-4,-.111E-5,0
GLOBALSTAR M096,2013-005D,2026-06-20T07:36:14.803200,12.62265673,.0000103,52.0043,190.0746,333.6105,26.4756,0,U,39075,999,61778,-.51054335E-4,-.113E-5,0
GLOBALSTAR M078,2013-005E,2026-06-20T05:03:23.387904,12.62257807,.00005074,51.9879,274.4031,241.6597,118.4218,0,U,39076,999,61639,-.87326632E-4,-.119E-5,0
GLOBALSTAR M095,2013-005F,2026-06-20T05:41:53.553696,12.62263517,.00001715,52.0088,271.9306,132.1793,227.9088,0,U,39077,999,61625,.10425414E-3,-.85E-6,0
GLOBALSTAR M087,2022-064A,2026-06-20T00:18:51.719040,12.62269147,.00008029,52.0009,53.8493,44.7090,315.3841,0,U,52888,999,19149,.82435614E-4,-.89E-6,0
