GLOBALSTAR M069         
1 31573U 07020C   26171.12000376 -.00000086  00000+0  59391-4 0  9999
2 31573  52.0019 243.8261 0002273 154.4269 213.0953 12.23471362879164
GLOBALSTAR M072         
1 31574U 07020D   26171.26260444 -.00000098  00000+0 -18974-3 0  9994
2 31574  51.9932  92.0574 0001444 340.1824 183.7882 11.91658300875341
GLOBALSTAR M066         
1 32265U 07048C   26170.84212878 -.00000143  00000+0 -41006-3 0  9996
2 32265  51.9606  50.2909 0005536  49.6386  29.5568 12.30387322860557
GLOBALSTAR M079         
1 37188U 10054A   26170.99097171 -.00000091  00000+0  71096-4 0  9993
2 37188  52.0037 100.1341 0000779  30.9958  48.7777 12.62266104722903
GLOBALSTAR M074         
1 37189U 10054B   26171.19051524 -.00000093  00000+0  59540-4 0  9991
2 37189  52.0014  98.7910 0000616  56.2996  90.9323 12.62268375723534
GLOBALSTAR M076         
1 37190U 10054C   26171.21921800 -.00000090  00000+0  79453-4 0  9991
2 37190  52.0024  98.9070 0000806  49.2410 108.4862 12.62261874723259
GLOBALSTAR M077         
1 37191U 10054D   26171.30027793 -.00000083  00000+0 -99329-4 0  9997
2 37191  51.9916 171.3940 0002682 178.1364 285.8666 11.67547827721501
GLOBALSTAR M075         
1 37192U 10054E   26171.30839313 -.00000106  00000+0 -13934-4 0  9991
2 37192  51.9926 140.6886 0000242  24.6357 118.4869 12.62267321722330
GLOBALSTAR M073         
1 37193U 10054F   26171.15501358 -.00000118  00000+0 -79796-4 0  9991
2 37193  52.0071  55.2584 0000957  54.8130 109.4595 12.62266390724307
GLOBALSTAR M083         
1 37739U 11033A   26171.24881131 -.00000087  00000+0  92563-4 0  9996
2 37739  51.9874   3.1972 0000954  71.2932 100.8602 12.62263282693334
GLOBALSTAR M088         
1 37740U 11033B   26171.27017734 -.00000085  00000+0  10469-3 0  9993
2 37740  52.0214 269.5692 0000642 132.0435 255.6304 12.62268842688880
GLOBALSTAR M091         
1 37741U 11033C   26171.20529848 -.00000099  00000+0  25847-4 0  9993
2 37741  51.9986 232.7278 0000230 161.8311 231.8185 12.62264047689666
GLOBALSTAR M085         
1 37742U 11033D   26171.20179262 -.00000117  00000+0 -74839-4 0  9992
2 37742  52.0095 184.0317 0000175 320.4031 117.3879 12.62264127690178
GLOBALSTAR M081         
1 37743U 11033E   26171.22836966 -.00000107  00000+0 -16405-4 0  9990
2 37743  51.9928 186.3840 0000110  60.5782  17.7034 12.62265138690328
GLOBALSTAR M089         
1 37744U 11033F   26171.28110424 -.00000099  00000+0  27605-4 0  9994
2 37744  51.9910 140.3804 0000381  80.3883  58.5428 12.62267260691174
GLOBALSTAR M084         
1 38040U 11080A   26170.98189589 -.00000098  00000+0  33465-4 0  9990
2 38040  52.0027   8.7741 0001101  90.0231  68.5285 12.62267589669113
GLOBALSTAR M080         
1 38041U 11080B   26171.03398437 -.00000090  00000+0  74924-4 0  9999
2 38041  52.0078  10.3347 0000404  72.1904  93.2346 12.62269508669244
GLOBALSTAR M082         
1 38042U 11080C   26171.20887123 -.00000091  00000+0  72167-4 0  9992
2 38042  52.0100 325.3040 0000512 101.3544  69.1461 12.62263688669978
GLOBALSTAR M092         
1 38043U 11080D   26171.18336485 -.00000091  00000+0  70590-4 0  9998
2 38043  52.0094  55.7781 0000751  67.9038 105.6882 12.62267042668427
GLOBALSTAR M090         
1 38044U 11080E   26171.15655069 -.00000098  00000+0  31271-4 0  9998
2 38044  52.0139 319.4194 0000775  95.6256  76.0811 12.62269044670084
GLOBALSTAR M086         
1 38045U 11080F   26171.17799318 -.00000083  00000+0  11386-3 0  9995
2 38045  51.9916 319.2795 0001694  72.6310  97.7535 12.62286838670036
GLOBALSTAR M097         
1 39072U 13005A   26171.17192405 -.00000098  00000+0  32518-4 0  9996
2 39072  52.0035 234.2520 0000227 126.9054 233.1834 12.62247329617280
GLOBALSTAR M093         
1 39073U 13005B   26171.30346417 -.00000105  00000+0 -47152-5 0  9997
2 39073  52.0088 227.1985 0000174  76.1111 283.9775 12.62266017617255
GLOBALSTAR M094         
1 39074U 13005C   26171.22416743 -.00000111  00000+0 -39278-4 0  9995
2 39074  51.9934 141.5515 0000487  11.0413 349.0464 12.62268522618851
GLOBALSTAR M096         
1 39075U 13005D   26171.31683800 -.00000113  00000+0 -51054-4 0  9994
2 39075  52.0043 190.0746 0000103 333.6105  26.4756 12.62265673617781
GLOBALSTAR M078         
1 39076U 13005E   26171.21068736 -.00000119  00000+0 -87327-4 0  9997
2 39076  51.9879 274.4031 0000507 241.6597 118.4218 12.62257807616393
GLOBALSTAR M095         
1 39077U 13005F   26171.23742539 -.00000085  00000+0  10425-3 0  9995
2 39077  52.0088 271.9306 0000171 132.1793 227.9088 12.62263517616255
GLOBALSTAR M087         
1 52888U 22064A   26171.01309860 -.00000089  00000+0  82436-4 0  9993
2 52888  52.0009  53.8493 0000802  44.7090 315.3841 12.62269147191494
